
YAMAL 402               
1 39022U 12070A   25040.55240819  .00000076  00000+0  00000+0 0  9992
2 39022   0.0210 113.6112 0004509 203.3053  76.6953  1.00271119 44455
GOKTURK 2               
1 39030U 12073A   25040.84171503  .00001189  00000+0  18495-3 0  9996
2 39030  97.7245 257.0519 0001866 100.8467 259.2952 14.74727759651950
SKYNET 5D               
1 39034U 12075A   25040.55197378  .00000090  00000+0  00000+0 0  9997
2 39034   0.0689 355.2087 0004506 320.0196  76.0719  1.00269084 44211
MEXSAT 3                
1 39035U 12075B   25040.58646025 -.00000035  00000+0  00000+0 0  9999
2 39035   0.0112 128.5384 0002241 177.7415 289.9298  1.00271610  2117
COSMOS 2482             
1 39057U 13001A   25040.59775486  .00000032  00000+0  15578-3 0  9994
2 39057  82.5019 166.8306 0027297  21.1520 339.0682 12.42974523547511
COSMOS 2483             
1 39058U 13001B   25040.84088601  .00000014  00000+0  29963-4 0  9993
2 39058  82.5032 161.7747 0016251  11.8449 348.3011 12.44008077548079
COSMOS 2484             
1 39059U 13001C   25040.84240632  .00000013  00000+0  23561-4 0  9995
2 39059  82.5053 168.0390 0026177  29.6585 330.5973 12.42915360547601
TDRS 11                 
1 39070U 13004A   25040.62617094  .00000069  00000+0  00000+0 0  9996
2 39070   2.9096  19.6338 0003230   4.8753 166.4500  1.00268779 41751
GLOBALSTAR M097         
1 39072U 13005A   25040.16278379 -.00000078  00000+0  14203-3 0  9992
2 39072  52.0061 304.1561 0000795  52.6408 307.4531 12.62269719554645
GLOBALSTAR M093         
1 39073U 13005B   25040.13575837 -.00000072  00000+0  17984-3 0  9992
2 39073  51.9819 297.7419 0000806  52.4708 307.6232 12.62261282554599
GLOBALSTAR M094         
1 39074U 13005C   25040.61130102 -.00000097  00000+0  40531-4 0  9990
2 39074  51.9933 210.5475 0000953  75.3742 284.7231 12.62268253556262
GLOBALSTAR M096         
1 39075U 13005D   25040.30781137 -.00000069  00000+0  19147-3 0  9994
2 39075  52.0055 259.8894 0000856  58.4607 301.6344 12.62268165555147
GLOBALSTAR M078         
1 39076U 13005E   25040.51828089  .00000016  00000+0  66911-3 0  9998
2 39076  51.9899 343.9257 0000498 266.6723  93.4087 12.62272027553795
GLOBALSTAR M095         
1 39077U 13005F   25040.54516090 -.00000088  00000+0  89294-4 0  9998
2 39077  51.9826 341.1079 0000459 350.7087   9.3771 12.62266041554014
AMAZONAS 3              
1 39078U 13006A   25040.52921111 -.00000292  00000+0  00000+0 0  9992
2 39078   0.0535 252.6965 0003512  43.7223 332.9358  1.00272907 39978
AZERSPACE 1             
1 39079U 13006B   25040.76492419  .00000123  00000+0  00000+0 0  9995
2 39079   0.0020  67.2681 0002537 290.5772 103.5745  1.00272847 43992
LANDSAT 8               
1 39084U 13008A   25040.80213905  .00000829  00000+0  19390-3 0  9998
2 39084  98.2012 113.1988 0001291  89.6954 270.4392 14.57124192638014
SARAL                   
1 39086U 13009A   25040.62695209  .00000304  00000+0  12810-3 0  9990
2 39086  98.5510 228.5352 0001159 334.4690  25.6437 14.32653528625074
SAPPHIRE                
1 39088U 13009C   25040.44824427  .00000389  00000+0  15174-3 0  9997
2 39088  98.4104 227.0751 0010155 277.0840  82.9190 14.34979649625907
NEOSSAT                 
1 39089U 13009D   25040.75620350  .00000459  00000+0  17440-3 0  9997
2 39089  98.4036 227.9535 0009979 275.0592  84.9455 14.35498752626094
STRAND-1                
1 39090U 13009E   25040.33353793  .00000768  00000+0  27561-3 0  9995
2 39090  98.3792 228.1932 0007731 263.7676  96.2630 14.36628903626285
BRITE-AUSTRIA           
1 39091U 13009F   25040.50771239  .00000519  00000+0  19241-3 0  9994
2 39091  98.3844 227.6314 0009165 271.7320  88.2817 14.36182438626321
SBIRS GEO-2 (USA 241)   
1 39120U 13011A   25023.22297840 -.00000252  00000+0  00000+0 0  9995
2 39120   3.4112  50.1832 0012185 286.4307 187.5621  1.00107686 43426
EUTELSAT 117 WEST A     
1 39122U 13012A   25040.58534808 -.00000022  00000+0  00000+0 0  9999
2 39122   0.0497 283.7863 0002994  34.2057 275.8259  1.00270465 43494
ANIK G1                 
1 39127U 13014A   25040.52012133 -.00000084  00000+0  00000+0 0  9990
2 39127   0.0257 103.5345 0003196 198.3814 277.8811  1.00270115 43303
GAOFEN-1                
1 39150U 13018A   25040.79560959  .00001469  00000+0  21730-3 0  9997
2 39150  97.9631 116.2978 0019473  56.9565 303.3512 14.76554064635620
NEE-01 PEGASO           
1 39151U 13018B   25040.59608856  .00004801  00000+0  51063-3 0  9990
2 39151  98.0542 167.0100 0013671 347.4477  12.6397 14.89394464637273
COSMOS 2485 [GLONASS-M] 
1 39155U 13019A   25040.65955225  .00000006  00000+0  00000+0 0  9991
2 39155  65.1517  90.1674 0025067 235.2272 124.6115  2.13104370 91786
ZHONGXING-11            
1 39157U 13020A   25040.75831310 -.00000300  00000+0  00000+0 0  9992
2 39157   0.0083  87.1418 0006018 224.1396 199.6746  1.00270935 43218
PROBA-V                 
1 39159U 13021A   25040.74925131  .00000199  00000+0  10539-3 0  9996
2 39159  98.3156  40.1152 0005120 125.7655 234.4001 14.23430662611051
VNREDSAT 1              
1 39160U 13021B   25040.81777206  .00001339  00000+0  26082-3 0  9991
2 39160  97.9669 106.3805 0001104  98.6527 261.4802 14.64590700628222
ESTCUBE 1               
1 39161U 13021C   25040.62560427  .00003264  00000+0  44981-3 0  9993
2 39161  97.7984 105.8744 0008816 172.0201 188.1152 14.78854905632199
EUTELSAT 7B             
1 39163U 13022A   25040.32854991  .00000039  00000+0  00000+0 0  9992
2 39163   0.0678 355.7509 0006112 349.2490 279.9046  1.00272663 43012
NAVSTAR 68 (USA 242)    
1 39166U 13023A   25040.08885258 -.00000013  00000+0  00000+0 0  9992
2 39166  54.9065 289.0112 0131752  46.2208 314.9245  2.00561954 85991
WGS F5 (USA 243)        
1 39168U 13024A   25040.45956565 -.00000294  00000+0  00000+0 0  9997
2 39168   0.0277 103.5165 0000488 211.2891 297.9334  1.00268661 42238
SES-6                   
1 39172U 13026A   25040.46199831 -.00000271  00000+0  00000+0 0  9995
2 39172   0.0625 283.9216 0002511  35.7997 305.8583  1.00270228 42782
COSMOS 2486             
1 39177U 13028A   25040.83268531  .00000536  00000+0  13197-3 0  9995
2 39177  97.9514  24.4680 0012334 108.3123 251.9418 14.55785678619731
O3B FM5                 
1 39188U 13031A   25040.54766119 -.00000027  00000+0  00000+0 0  9995
2 39188   0.0574 342.1639 0002713 343.2268  34.5840  5.00115236212389
O3B FM2                 
1 39190U 13031C   25040.49498936 -.00000027  00000+0  00000+0 0  9991
2 39190   0.0401  16.2787 0002676 306.7094  36.9857  5.00115677212465
O3B PFM                 
1 39191U 13031D   25040.52042878 -.00000027  00000+0  00000+0 0  9996
2 39191   0.0526 350.2092 0002708 330.4962  39.2673  5.00115154212022
IRIS                    
1 39197U 13033A   25040.54623046  .00003294  00000+0  40053-3 0  9992
2 39197  97.9554 236.1809 0026092 126.7741 233.5874 14.83937714627268
SJ-11-05                
1 39202U 13035A   25040.77087916  .00001487  00000+0  29421-3 0  9994
2 39202  98.2648 217.8646 0010267 343.8021  16.2851 14.63792710617160
MUOS-2                  
1 39206U 13036A   25040.36915936  .00000055  00000+0  00000+0 0  9994
2 39206   4.0423  43.2402 0052514 183.8679 228.4990  1.00275327 42253
SHIYAN 7 (SY-7)         
1 39208U 13037A   25040.56724457  .00001562  00000+0  26126-3 0  9990
2 39208  98.0763  41.9215 0006570 279.0708  80.9755 14.71234989619749
CHUANGXIN-3 (CX-3)      
1 39209U 13037B   25040.59684472  .00002486  00000+0  39555-3 0  9992
2 39209  98.0747  43.5937 0002673 269.5104  90.5797 14.72924437619798
SHIJIAN-15 (SJ-15)      
1 39210U 13037C   25040.82486625  .00001106  00000+0  19072-3 0  9990
2 39210  98.0911  41.6457 0004874 276.7112  83.3539 14.70447274621944
ALPHASAT                
1 39215U 13038A   25040.54641344  .00000125  00000+0  00000+0 0  9993
2 39215   2.9214   5.5050 0002118 318.5508  37.3726  1.00273990 39075
INSAT-3D                
1 39216U 13038B   25040.63644925 -.00000350  00000+0  00000+0 0  9993
2 39216   0.6503  89.5184 0003091 210.1681 198.8615  1.00268052 42147
WGS F6 (USA 244)        
1 39222U 13041A   25040.44323212  .00000080  00000+0  00000+0 0  9995
2 39222   0.0270  99.5604 0000771 175.2669 249.3100  1.00273027 41111
ARIRANG-5 (KOMPSAT-5)   
1 39227U 13042A   25040.80457600  .00004308  00000+0  31180-3 0  9994
2 39227  97.6171 229.3770 0003009  34.4569 325.6851 15.04524385629889
ES'HAIL 1               
1 39233U 13044A   25040.54650032  .00000133  00000+0  00000+0 0  9993
2 39233   0.0514  17.8722 0002261 303.8354  40.3824  1.00274055 41680
GSAT-7                  
1 39234U 13044B   25040.55614405 -.00000087  00000+0  00000+0 0  9998
2 39234   0.0271 100.6689 0009960 180.3545 133.0296  1.00271681 40311
AMOS-4                  
1 39237U 13045A   25040.55440644 -.00000003  00000+0  00000+0 0  9992
2 39237   0.0457 251.4937 0003458  85.0185  67.9431  1.00271698 42011
YAOGAN-17 01A           
1 39239U 13046A   25040.53685930  .00000039  00000+0  14093-3 0  9991
2 39239  63.3903 280.3778 0382809   9.6549 351.1569 13.45418639562108
YAOGAN-17 01B           
1 39240U 13046B   25040.57083967  .00000066  00000+0  16993-3 0  9990
2 39240  63.3914 280.8004 0382824   9.2535 351.5288 13.45386237562051
YAOGAN-17 01C           
1 39241U 13046C   25040.54598777  .00000055  00000+0  15709-3 0  9990
2 39241  63.3909 279.7099 0383613   9.3111 351.4769 13.45398864562091
GONETS-M 5              
1 39249U 13048A   25040.62909053  .00000034  00000+0  17401-3 0  9990
2 39249  82.4814 290.4269 0015631 205.4444 154.5867 12.42858316517691
GONETS-M 6              
1 39250U 13048B   25040.81670868  .00000026  00000+0  11549-3 0  9990
2 39250  82.4844 291.1768 0018039 240.2662 119.6623 12.43009282517897
